NANOSATC-BR1            
1 40024U 14033Q   26068.98267556  .00020336  00000+0  74295-3 0  9994
2 40024  98.0845  92.7804 0004644 147.6715 212.4808 15.28136801638811
STARLINK-34135          
1 63964U 25099N   26068.33890482  .00023699  00000+0  86768-3 0  9998
2 63964  43.0012 178.1170 0002095 282.0487  78.0130 15.27590381 47283
